[{"OBJECT_NAME":"YAOGAN-25 01C","OBJECT_ID":"2014-080C","EPOCH":"2026-03-09T21:44:14.259840","MEAN_MOTION":13.45338846,"ECCENTRICITY":0.03581993,"INCLINATION":63.3869,"RA_OF_ASC_NODE":207.0519,"ARG_OF_PERICENTER":9.1331,"MEAN_ANOMALY":351.5983,"EPHEMERIS_TYPE":0,"CLASSIFICATION_TYPE":"U","NORAD_CAT_ID":40340,"ELEMENT_SET_NO":999,"REV_AT_EPOCH":55239,"BSTAR":-0.00015364378,"MEAN_MOTION_DOT":-2.25e-6,"MEAN_MOTION_DDOT":0},{"OBJECT_NAME":"NIMBUS 2 DEB","OBJECT_ID":"1966-040BH","EPOCH":"2026-03-05T09:04:30.478656","MEAN_MOTION":13.46060545,"ECCENTRICITY":0.0053671,"INCLINATION":100.3376,"RA_OF_ASC_NODE":289.3435,"ARG_OF_PERICENTER":62.5159,"MEAN_ANOMALY":298.1413,"EPHEMERIS_TYPE":0,"CLASSIFICATION_TYPE":"U","NORAD_CAT_ID":40644,"ELEMENT_SET_NO":999,"REV_AT_EPOCH":53005,"BSTAR":0.0040109,"MEAN_MOTION_DOT":2.373e-5,"MEAN_MOTION_DDOT":0}]
